[{"OBJECT_NAME":"ZHUHAI-1 03B","OBJECT_ID":"2019-060C","EPOCH":"2026-03-09T23:17:29.992992","MEAN_MOTION":15.48049208,"ECCENTRICITY":0.00085373,"INCLINATION":97.5406,"RA_OF_ASC_NODE":221.8965,"ARG_OF_PERICENTER":320.2572,"MEAN_ANOMALY":39.8051,"EPHEMERIS_TYPE":0,"CLASSIFICATION_TYPE":"U","NORAD_CAT_ID":44536,"ELEMENT_SET_NO":999,"REV_AT_EPOCH":36094,"BSTAR":0.00073406369,"MEAN_MOTION_DOT":0.00038517,"MEAN_MOTION_DDOT":0},{"OBJECT_NAME":"STARLINK-1402","OBJECT_ID":"2020-035AE","EPOCH":"2026-03-09T06:23:56.037120","MEAN_MOTION":15.44772661,"ECCENTRICITY":7.882e-5,"INCLINATION":53.0494,"RA_OF_ASC_NODE":25.4082,"ARG_OF_PERICENTER":198.8556,"MEAN_ANOMALY":161.242,"EPHEMERIS_TYPE":0,"CLASSIFICATION_TYPE":"U","NORAD_CAT_ID":45685,"ELEMENT_SET_NO":999,"REV_AT_EPOCH":31928,"BSTAR":0.0017105302,"MEAN_MOTION_DOT":0.00081749,"MEAN_MOTION_DDOT":0}]
